NORAD_CAT_ID,OBJECT_NAME,OBJECT_TYPE,EPOCH,MEAN_MOTION,ECCENTRICITY,INCLINATION,RA_OF_ASC_NODE,ARG_OF_PERICENTER,MEAN_ANOMALY,BSTAR,MEAN_MOTION_DOT,MEAN_MOTION_DDOT,TLE_LINE0,TLE_LINE1,TLE_LINE2,SEMIMAJOR_AXIS,PERIOD,APOGEE,PERIGEE,DECAYED
56486.0,STARLINK-6201,PAYLOAD,2023-09-07 22:00:00,15.31419087,0.0003216,69.9982,269.4141,271.2763,292.7191,-0.030229,-0.00848664,0.0,0 STARLINK-6201,1 56486U 23064AQ  23250.91667824 -.00848664  00000-0 -30229-1 0  9994,2 56486  69.9982 269.4141 0003216 271.2763 292.7191 15.31419087  5927,6849.715,94.03,473.782,469.377,0.0
56486.0,STARLINK-6201,PAYLOAD,2023-09-08 14:00:01,15.30166971,0.00034,69.9978,267.6469,276.4494,0.3757,-0.034938,-0.00935505,0.0,0 STARLINK-6201,1 56486U 23064AQ  23251.58334491 -.00935505  00000-0 -34938-1 0  9991,2 56486  69.9978 267.6469 0003400 276.4494   0.3757 15.30166971  6021,6853.451,94.107,477.646,472.986,0.0
56486.0,STARLINK-6201,PAYLOAD,2023-09-08 22:00:00,15.29461627,0.0003413,69.9982,266.7646,270.5542,41.5343,-0.032038,-0.0084656,0.0,0 STARLINK-6201,1 56486U 23064AQ  23251.91667824 -.00846560  00000-0 -32038-1 0  9998,2 56486  69.9982 266.7646 0003413 270.5542  41.5343 15.29461627 19347,6855.558,94.151,479.762,475.083,0.0
56486.0,STARLINK-6201,PAYLOAD,2023-09-09 14:00:01,15.28209823,0.0003502,69.9978,265.0026,278.5525,101.672,-0.037088,-0.00946788,0.0,0 STARLINK-6201,1 56486U 23064AQ  23252.58334491 -.00946788  00000-0 -37088-1 0  9996,2 56486  69.9978 265.0026 0003502 278.5525 101.6720 15.28209823 19450,6859.301,94.228,483.568,478.764,0.0
56486.0,STARLINK-6201,PAYLOAD,2023-09-10 14:00:01,15.26253825,0.0003331,69.9976,262.3662,279.2482,197.335,-0.039452,-0.0094867,0.0,0 STARLINK-6201,1 56486U 23064AQ  23253.58334491 -.00948670  00000-0 -39452-1 0  9996,2 56486  69.9976 262.3662 0003331 279.2482 197.3350 15.26253825  5820,6865.16,94.349,489.312,484.738,0.0
56486.0,STARLINK-6201,PAYLOAD,2023-09-10 22:00:00,15.25556225,0.0003254,69.9976,261.4893,271.638,235.5116,-0.036659,-0.00858714,0.0,0 STARLINK-6201,1 56486U 23064AQ  23253.91667824 -.00858714  00000-0 -36659-1 0  9997,2 56486  69.9976 261.4893 0003254 271.6380 235.5116 15.25556225 19653,6867.253,94.392,491.352,486.883,0.0
56486.0,STARLINK-6201,PAYLOAD,2023-09-11 14:00:01,15.24300665,0.0003232,69.9973,259.7378,275.8969,290.004,-0.042224,-0.00956664,0.0,0 STARLINK-6201,1 56486U 23064AQ  23254.58334491 -.00956664  00000-0 -42224-1 0  9990,2 56486  69.9973 259.7378 0003232 275.8969 290.0040 15.24300665 19750,6871.023,94.47,495.109,490.667,0.0
56486.0,STARLINK-6201,PAYLOAD,2023-09-12 06:00:00,15.22980493,0.0003273,69.9976,257.9899,271.7783,349.7641,-0.042747,-0.00932958,0.0,0 STARLINK-6201,1 56486U 23064AQ  23255.25001157 -.00932958  00000-0 -42747-1 0  9995,2 56486  69.9976 257.9899 0003273 271.7783 349.7641 15.22980493 19856,6874.993,94.551,499.109,494.608,0.0
56486.0,STARLINK-6201,PAYLOAD,2023-09-12 14:00:01,15.22346716,0.0003287,69.9971,257.1172,273.7972,14.4449,-0.045087,-0.00963278,0.0,0 STARLINK-6201,1 56486U 23064AQ  23255.58335648 -.00963278  00000-0 -45087-1 0  9995,2 56486  69.9971 257.1172 0003287 273.7972  14.4449 15.22346716  5978,6876.901,94.591,501.027,496.506,0.0
56486.0,STARLINK-6201,PAYLOAD,2023-09-12 22:00:00,15.21644735,0.000332,69.9971,256.2455,267.5426,46.5089,-0.041308,-0.00860866,0.0,0 STARLINK-6201,1 56486U 23064AQ  23255.91667824 -.00860866  00000-0 -41308-1 0  9997,2 56486  69.9971 256.2455 0003320 267.5426  46.5089 15.21644735  6030,6879.016,94.634,503.165,498.597,0.0
56486.0,STARLINK-6201,PAYLOAD,2023-09-13 06:00:02,15.21023217,0.0003364,69.9973,255.3745,272.0317,67.1582,-0.045235,-0.00931896,0.0,0 STARLINK-6201,1 56486U 23064AQ  23256.25002315 -.00931896  00000-0 -45235-1 0  9998,2 56486  69.9973 255.3745 0003364 272.0317  67.1582 15.21023217 20008,6880.89,94.673,505.07,500.44,0.0
56486.0,STARLINK-6201,PAYLOAD,2023-09-13 14:00:01,15.20390282,0.0003319,69.997,254.5045,274.5014,88.9146,-0.047804,-0.00964105,0.0,0 STARLINK-6201,1 56486U 23064AQ  23256.58334491 -.00964105  00000-0 -47804-1 0  9990,2 56486  69.9970 254.5045 0003319 274.5014  88.9146 15.20390282  5996,6882.799,94.713,506.949,502.38,0.0
56486.0,STARLINK-6201,PAYLOAD,2023-09-13 22:00:00,15.19689703,0.0003314,69.9971,253.6354,268.4627,118.4784,-0.043877,-0.00873562,0.0,0 STARLINK-6201,1 56486U 23064AQ  23256.91667824 -.00873562  00000-0 -43877-1 0  9998,2 56486  69.9971 253.6354 0003314 268.4627 118.4784 15.19689703  6026,6884.915,94.756,509.061,504.498,0.0
56486.0,STARLINK-6201,PAYLOAD,2023-09-14 14:00:01,15.18432275,0.0003237,69.997,251.8997,275.1005,156.576,-0.050506,-0.00962293,0.0,0 STARLINK-6201,1 56486U 23064AQ  23257.58335648 -.00962293  00000-0 -50506-1 0  9995,2 56486  69.9970 251.8997 0003237 275.1005 156.5760 15.18432275 20210,6888.715,94.835,512.81,508.35,0.0
56486.0,STARLINK-6201,PAYLOAD,2023-09-14 22:00:00,15.1773665,0.0003196,69.9972,251.0332,268.8826,183.9066,-0.04674,-0.00878942,0.0,0 STARLINK-6201,1 56486U 23064AQ  23257.91667824 -.00878942  00000-0 -46740-1 0  9998,2 56486  69.9972 251.0332 0003196 268.8826 183.9066 15.17736650  6019,6890.82,94.878,514.887,510.483,0.0
56486.0,STARLINK-6201,PAYLOAD,2023-09-15 04:00:00,15.172859,0.0003303,69.9975,250.3838,270.764,107.3799,-0.051491,-0.00950126,0.0,0 STARLINK-6201,1 56486U 23064AQ  23258.16667824 -.00950126  00000-0 -51491-1 0  9990,2 56486  69.9975 250.3838 0003303 270.7640 107.3799 15.17285900 20309,6892.184,94.906,516.326,511.773,0.0
56486.0,STARLINK-6201,PAYLOAD,2023-09-15 14:00:01,15.16476255,0.0003118,69.9972,249.3027,274.2807,218.4885,-0.053533,-0.00963957,0.0,0 STARLINK-6201,1 56486U 23064AQ  23258.58334491 -.00963957  00000-0 -53533-1 0  9992,2 56486  69.9972 249.3027 0003118 274.2807 218.4885 15.16476255  6018,6894.637,94.957,518.652,514.353,0.0
56486.0,STARLINK-6201,PAYLOAD,2023-09-15 22:00:00,15.15784166,0.0003113,69.9975,248.4388,267.7658,243.8309,-0.049812,-0.00885246,0.0,0 STARLINK-6201,1 56486U 23064AQ  23258.91667824 -.00885246  00000-0 -49812-1 0  9997,2 56486  69.9975 248.4388 0003113 267.7658 243.8309 15.15784166 20412,6896.736,95.0,520.748,516.454,0.0
56486.0,STARLINK-6201,PAYLOAD,2023-09-16 14:00:01,15.1451992,0.0003072,69.9974,246.7135,272.2921,274.593,-0.056725,-0.00965916,0.0,0 STARLINK-6201,1 56486U 23064AQ  23259.58334491 -.00965916  00000-0 -56725-1 0  9996,2 56486  69.9974 246.7135 0003072 272.2921 274.5930 15.14519920 20515,6900.573,95.08,524.558,520.319,0.0
56486.0,STARLINK-6201,PAYLOAD,2023-09-17 06:00:00,15.131832,0.0003135,69.9979,244.9917,270.9999,308.0618,-0.055221,-0.00909831,0.0,0 STARLINK-6201,1 56486U 23064AQ  23260.25001157 -.00909831  00000-0 -55221-1 0  9996,2 56486  69.9979 244.9917 0003135 270.9999 308.0618 15.13183200 20612,6904.637,95.164,528.666,524.337,0.0
56486.0,STARLINK-6201,PAYLOAD,2023-09-17 14:00:01,15.12562649,0.0003111,69.9978,244.1321,270.4763,323.4845,-0.06,-0.00966806,0.0,0 STARLINK-6201,1 56486U 23064AQ  23260.58334491 -.00966806  00000-0 -60000-1 0  9998,2 56486  69.9978 244.1321 0003111 270.4763 323.4845 15.12562649  5972,6906.525,95.203,530.539,526.241,0.0
56486.0,STARLINK-6201,PAYLOAD,2023-09-18 06:00:00,15.11225374,0.000319,69.9983,242.4155,270.2443,351.1992,-0.058167,-0.0090751,0.0,0 STARLINK-6201,1 56486U 23064AQ  23261.25001157 -.00907510  00000-0 -58167-1 0  9991,2 56486  69.9983 242.4155 0003190 270.2443 351.1992 15.11225374 20769,6910.599,95.287,534.668,530.259,0.0
56486.0,STARLINK-6201,PAYLOAD,2023-09-18 14:00:01,15.10604208,0.0003186,69.998,241.5585,269.4855,4.5108,-0.063288,-0.00965712,0.0,0 STARLINK-6201,1 56486U 23064AQ  23261.58334491 -.00965712  00000-0 -63288-1 0  9995,2 56486  69.9980 241.5585 0003186 269.4855   4.5108 15.10604208  5975,6912.493,95.326,536.56,532.156,0.0
56486.0,STARLINK-6201,PAYLOAD,2023-09-18 22:00:00,15.0992224,0.0003208,69.9984,240.7024,264.1982,21.5802,-0.059497,-0.00896203,0.0,0 STARLINK-6201,1 56486U 23064AQ  23261.91667824 -.00896203  00000-0 -59497-1 0  9996,2 56486  69.9984 240.7024 0003208 264.1982  21.5802 15.09922240  5816,6914.574,95.369,538.658,534.221,0.0
56486.0,STARLINK-6201,PAYLOAD,2023-09-19 06:00:00,15.09268514,0.0003246,69.9985,239.8471,269.8575,26.9271,-0.061365,-0.00907001,0.0,0 STARLINK-6201,1 56486U 23064AQ  23262.25001157 -.00907001  00000-0 -61365-1 0  9991,2 56486  69.9985 239.8471 0003246 269.8575  26.9271 15.09268514 20918,6916.571,95.41,540.681,536.191,0.0
56486.0,STARLINK-6201,PAYLOAD,2023-09-19 22:00:00,15.07968606,0.0003257,69.9985,238.1392,263.8252,52.5992,-0.063086,-0.00900299,0.0,0 STARLINK-6201,1 56486U 23064AQ  23262.91667824 -.00900299  00000-0 -63086-1 0  9997,2 56486  69.9985 238.1392 0003257 263.8252  52.5992 15.07968606 21014,6920.545,95.493,544.664,540.156,0.0
56486.0,STARLINK-6201,PAYLOAD,2023-09-20 14:00:01,15.06686849,0.0003247,69.9982,236.4346,268.2731,64.6725,-0.070154,-0.00961712,0.0,0 STARLINK-6201,1 56486U 23064AQ  23263.58334491 -.00961712  00000-0 -70154-1 0  9993,2 56486  69.9982 236.4346 0003247 268.2731  64.6725 15.06686849 21115,6924.47,95.574,548.583,544.086,0.0
56486.0,STARLINK-6201,PAYLOAD,2023-09-20 22:00:00,15.06015617,0.0003282,69.9985,235.5838,263.5393,76.4904,-0.066957,-0.00905702,0.0,0 STARLINK-6201,1 56486U 23064AQ  23263.91667824 -.00905702  00000-0 -66957-1 0  9992,2 56486  69.9985 235.5838 0003282 263.5393  76.4904 15.06015617  5958,6926.527,95.617,550.665,546.119,0.0
56486.0,STARLINK-6201,PAYLOAD,2023-09-21 06:00:00,15.05353321,0.0003287,69.9985,234.7336,269.4043,76.9405,-0.068005,-0.00903724,0.0,0 STARLINK-6201,1 56486U 23064AQ  23264.25001157 -.00903724  00000-0 -68005-1 0  9999,2 56486  69.9985 234.7336 0003287 269.4043  76.9405 15.05353321 21229,6928.558,95.659,552.701,548.146,0.0
56486.0,STARLINK-6201,PAYLOAD,2023-09-21 14:00:01,15.04727992,0.0003276,69.9982,233.8843,267.913,83.9461,-0.073735,-0.00970104,0.0,0 STARLINK-6201,1 56486U 23064AQ  23264.58334491 -.00970104  00000-0 -73735-1 0  9997,2 56486  69.9982 233.8843 0003276 267.9130  83.9461 15.04727992  5845,6930.478,95.698,554.613,550.072,0.0
